{
  "type": "FeatureCollection",
  "features": [
    {
      "type": "Feature",
      "properties": {
        "norad_id": 40362,
        "name": "YAOGAN-26",
        "group": "resource",
        "lat": 52.513844941712726,
        "lon": 174.541708970852,
        "alt_km": 443.84377145687085,
        "timestamp": "2025-12-10T11:33:53.048490+00:00",
        "meta_object_name": "YAOGAN-26",
        "meta_object_id": "2014-088A",
        "meta_epoch": "2025-12-10T04:46:29.420832",
        "meta_mean_motion": 15.39163306,
        "meta_eccentricity": 0.0006607,
        "meta_inclination": 97.0649,
        "meta_ra_of_asc_node": 344.9627,
        "meta_arg_of_pericenter": 35.8838,
        "meta_mean_anomaly": 324.2851,
        "meta_ephemeris_type": 0,
        "meta_classification_type": "U",
        "meta_norad_cat_id": 40362,
        "meta_element_set_no": 999,
        "meta_rev_at_epoch": 60855,
        "meta_bstar": 0.00087543,
        "meta_mean_motion_dot": 0.00034036,
        "meta_mean_motion_ddot": 0,
        "tle_line1": "1 40362U 14088A   25344.19895163  .00034036  00000+0  87543-3 0  9991",
        "tle_line2": "2 40362  97.0649 344.9627 0006607  35.8838 324.2851 15.39163306608557"
      },
      "geometry": {
        "type": "Point",
        "coordinates": [
          174.541708970852,
          52.513844941712726
        ]
      }
    },
    {
      "type": "Feature",
      "properties": {
        "norad_id": 40376,
        "name": "SMAP",
        "group": "resource",
        "lat": -81.75597336483663,
        "lon": 69.82100791738948,
        "alt_km": 690.6060444789027,
        "timestamp": "2025-12-10T11:33:53.048507+00:00",
        "meta_object_name": "SMAP",
        "meta_object_id": "2015-003A",
        "meta_epoch": "2025-12-10T03:45:50.956992",
        "meta_mean_motion": 14.6333959,
        "meta_eccentricity": 0.0001202,
        "meta_inclination": 98.1291,
        "meta_ra_of_asc_node": 348.9179,
        "meta_arg_of_pericenter": 88.764,
        "meta_mean_anomaly": 271.37,
        "meta_ephemeris_type": 0,
        "meta_classification_type": "U",
        "meta_norad_cat_id": 40376,
        "meta_element_set_no": 999,
        "meta_rev_at_epoch": 57997,
        "meta_bstar": 0.0001804,
        "meta_mean_motion_dot": 8.85e-06,
        "meta_mean_motion_ddot": 0,
        "tle_line1": "1 40376U 15003A   25344.15683978  .00000885  00000+0  18040-3 0  9990",
        "tle_line2": "2 40376  98.1291 348.9179 0001202  88.7640 271.3700 14.63339590579971"
      },
      "geometry": {
        "type": "Point",
        "coordinates": [
          69.82100791738948,
          -81.75597336483663
        ]
      }
    },
    {
      "type": "Feature",
      "properties": {
        "norad_id": 40536,
        "name": "KOMPSAT-3A",
        "group": "resource",
        "lat": 29.006550106249005,
        "lon": -45.58701373382744,
        "alt_km": 434.26128216525194,
        "timestamp": "2025-12-10T11:33:53.048529+00:00",
        "meta_object_name": "KOMPSAT-3A",
        "meta_object_id": "2015-014A",
        "meta_epoch": "2025-12-10T03:39:36.465696",
        "meta_mean_motion": 15.43793154,
        "meta_eccentricity": 0.0004626,
        "meta_inclination": 97.6792,
        "meta_ra_of_asc_node": 318.356,
        "meta_arg_of_pericenter": 132.6026,
        "meta_mean_anomaly": 227.5612,
        "meta_ephemeris_type": 0,
        "meta_classification_type": "U",
        "meta_norad_cat_id": 40536,
        "meta_element_set_no": 999,
        "meta_rev_at_epoch": 59255,
        "meta_bstar": 0.00058189,
        "meta_mean_motion_dot": 0.00026308,
        "meta_mean_motion_ddot": 0,
        "tle_line1": "1 40536U 15014A   25344.15250539  .00026308  00000+0  58189-3 0  9999",
        "tle_line2": "2 40536  97.6792 318.3560 0004626 132.6026 227.5612 15.43793154592557"
      },
      "geometry": {
        "type": "Point",
        "coordinates": [
          -45.58701373382744,
          29.006550106249005
        ]
      }
    },
    {
      "type": "Feature",
      "properties": {
        "norad_id": 40697,
        "name": "SENTINEL-2A",
        "group": "resource",
        "lat": 42.96878547574098,
        "lon": 48.97240069916807,
        "alt_km": 784.8601243108269,
        "timestamp": "2025-12-10T11:33:53.048546+00:00",
        "meta_object_name": "SENTINEL-2A",
        "meta_object_id": "2015-028A",
        "meta_epoch": "2025-12-10T04:38:54.729600",
        "meta_mean_motion": 14.30825658,
        "meta_eccentricity": 0.0001043,
        "meta_inclination": 98.5691,
        "meta_ra_of_asc_node": 56.7624,
        "meta_arg_of_pericenter": 90.2871,
        "meta_mean_anomaly": 269.8431,
        "meta_ephemeris_type": 0,
        "meta_classification_type": "U",
        "meta_norad_cat_id": 40697,
        "meta_element_set_no": 999,
        "meta_rev_at_epoch": 54670,
        "meta_bstar": 8.8693e-05,
        "meta_mean_motion_dot": 1.89e-06,
        "meta_mean_motion_ddot": 0,
        "tle_line1": "1 40697U 15028A   25344.19368900  .00000189  00000+0  88693-4 0  9991",
        "tle_line2": "2 40697  98.5691  56.7624 0001043  90.2871 269.8431 14.30825658546708"
      },
      "geometry": {
        "type": "Point",
        "coordinates": [
          48.97240069916807,
          42.96878547574098
        ]
      }
    },
    {
      "type": "Feature",
      "properties": {
        "norad_id": 40701,
        "name": "GAOFEN-8",
        "group": "resource",
        "lat": -62.409281601212854,
        "lon": 177.50055830806738,
        "alt_km": 464.92178169210547,
        "timestamp": "2025-12-10T11:33:53.048563+00:00",
        "meta_object_name": "GAOFEN-8",
        "meta_object_id": "2015-030A",
        "meta_epoch": "2025-12-10T04:02:07.041120",
        "meta_mean_motion": 15.38397537,
        "meta_eccentricity": 0.0011524,
        "meta_inclination": 97.6915,
        "meta_ra_of_asc_node": 162.1835,
        "meta_arg_of_pericenter": 146.7005,
        "meta_mean_anomaly": 213.4967,
        "meta_ephemeris_type": 0,
        "meta_classification_type": "U",
        "meta_norad_cat_id": 40701,
        "meta_element_set_no": 999,
        "meta_rev_at_epoch": 58231,
        "meta_bstar": 0.00032318,
        "meta_mean_motion_dot": 0.0001218,
        "meta_mean_motion_ddot": 0,
        "tle_line1": "1 40701U 15030A   25344.16813705  .00012180  00000+0  32318-3 0  9991",
        "tle_line2": "2 40701  97.6915 162.1835 0011524 146.7005 213.4967 15.38397537582315"
      },
      "geometry": {
        "type": "Point",
        "coordinates": [
          177.50055830806738,
          -62.409281601212854
        ]
      }
    },
    {
      "type": "Feature",
      "properties": {
        "norad_id": 40718,
        "name": "CARBONITE 1 (CBNT-1)",
        "group": "resource",
        "lat": -39.03744391232161,
        "lon": 171.87463464511723,
        "alt_km": 633.865790715402,
        "timestamp": "2025-12-10T11:33:53.048574+00:00",
        "meta_object_name": "CARBONITE 1 (CBNT-1)",
        "meta_object_id": "2015-032D",
        "meta_epoch": "2025-12-10T03:38:40.430112",
        "meta_mean_motion": 14.82721646,
        "meta_eccentricity": 0.0014165,
        "meta_inclination": 97.6406,
        "meta_ra_of_asc_node": 165.3102,
        "meta_arg_of_pericenter": 189.7634,
        "meta_mean_anomaly": 170.3307,
        "meta_ephemeris_type": 0,
        "meta_classification_type": "U",
        "meta_norad_cat_id": 40718,
        "meta_element_set_no": 999,
        "meta_rev_at_epoch": 56132,
        "meta_bstar": 0.00020136,
        "meta_mean_motion_dot": 1.578e-05,
        "meta_mean_motion_ddot": 0,
        "tle_line1": "1 40718U 15032D   25344.15185683  .00001578  00000+0  20136-3 0  9991",
        "tle_line2": "2 40718  97.6406 165.3102 0014165 189.7634 170.3307 14.82721646561326"
      },
      "geometry": {
        "type": "Point",
        "coordinates": [
          171.87463464511723,
          -39.03744391232161
        ]
      }
    },
    {
      "type": "Feature",
      "properties": {
        "norad_id": 40878,
        "name": "YAOGAN-27",
        "group": "resource",
        "lat": -66.4743815763983,
        "lon": -1.6274516143337912,
        "alt_km": 1201.1629019721204,
        "timestamp": "2025-12-10T11:33:53.048584+00:00",
        "meta_object_name": "YAOGAN-27",
        "meta_object_id": "2015-040A",
        "meta_epoch": "2025-12-10T04:36:52.202304",
        "meta_mean_motion": 13.16060196,
        "meta_eccentricity": 0.0007641,
        "meta_inclination": 100.1008,
        "meta_ra_of_asc_node": 333.9269,
        "meta_arg_of_pericenter": 293.1704,
        "meta_mean_anomaly": 66.8605,
        "meta_ephemeris_type": 0,
        "meta_classification_type": "U",
        "meta_norad_cat_id": 40878,
        "meta_element_set_no": 999,
        "meta_rev_at_epoch": 49280,
        "meta_bstar": 0.00082845,
        "meta_mean_motion_dot": 2.72e-06,
        "meta_mean_motion_ddot": 0,
        "tle_line1": "1 40878U 15040A   25344.19227086  .00000272  00000+0  82845-3 0  9990",
        "tle_line2": "2 40878 100.1008 333.9269 0007641 293.1704  66.8605 13.16060196492805"
      },
      "geometry": {
        "type": "Point",
        "coordinates": [
          -1.6274516143337912,
          -66.4743815763983
        ]
      }
    }
  ]
}